{
"type": "FeatureCollection",
"name": "CityOfLondon",
"crs": { "type": "name", "properties": { "name": "urn:ogc:def:crs:OGC:1.3:CRS84" } },
"features": [
{ "type": "Feature", "properties": { "G_UNIT": 10063292, "G_NAME": "CITY OF LONDON", "NAMESTATUS": "P", "G_LANGUAGE": "eng", "UNITTYPE": "PR_DIST", "G_STATUS": "RegD", "NATION": "ENGLAND", "G_YEAR": 1891, "IM_AUTH": "GBHGIS", "IM_NOTE": null, "NOTES": null }, "geometry": { "type": "Polygon", "coordinates": [ [ [ -0.080115, 51.52094 ], [ -0.078811, 51.520797 ], [ -0.078426, 51.520418 ], [ -0.078195, 51.520126 ], [ -0.078239, 51.519575 ], [ -0.07815, 51.519154 ], [ -0.077898, 51.518755 ], [ -0.077822, 51.518561 ], [ -0.07755, 51.51828 ], [ -0.077238, 51.517725 ], [ -0.076565, 51.516867 ], [ -0.076028, 51.51646 ], [ -0.075288, 51.515952 ], [ -0.074574, 51.515537 ], [ -0.073989, 51.515019 ], [ -0.07352, 51.514668 ], [ -0.073149, 51.514767 ], [ -0.072478, 51.514107 ], [ -0.072302, 51.514165 ], [ -0.07168, 51.513576 ], [ -0.072764, 51.513418 ], [ -0.074146, 51.513346 ], [ -0.074835, 51.513098 ], [ -0.074478, 51.512028 ], [ -0.074133, 51.512059 ], [ -0.074095, 51.511895 ], [ -0.073446, 51.512066 ], [ -0.072308, 51.512208 ], [ -0.072087, 51.511397 ], [ -0.073315, 51.511315 ], [ -0.073206, 51.510994 ], [ -0.072202, 51.510978 ], [ -0.072226, 51.510095 ], [ -0.073171, 51.510059 ], [ -0.073895, 51.509566 ], [ -0.074829, 51.509861 ], [ -0.075169, 51.510299 ], [ -0.075277, 51.510493 ], [ -0.076209, 51.510428 ], [ -0.076239, 51.51022 ], [ -0.076765, 51.510135 ], [ -0.077131, 51.509738 ], [ -0.077513, 51.509383 ], [ -0.077313, 51.509287 ], [ -0.077776, 51.508664 ], [ -0.07796, 51.508125 ], [ -0.078296, 51.507556 ], [ -0.078707, 51.506723 ], [ -0.07988, 51.506982 ], [ -0.0814, 51.507104 ], [ -0.083648, 51.507399 ], [ -0.085502, 51.507627 ], [ -0.086912, 51.507781 ], [ -0.087476, 51.507915 ], [ -0.088445, 51.507988 ], [ -0.089774, 51.508064 ], [ -0.090949, 51.508216 ], [ -0.091854, 51.508537 ], [ -0.093108, 51.508861 ], [ -0.094201, 51.509103 ], [ -0.095857, 51.509418 ], [ -0.098104, 51.509625 ], [ -0.098359, 51.509651 ], [ -0.100207, 51.509837 ], [ -0.101453, 51.509828 ], [ -0.103851, 51.509966 ], [ -0.103685, 51.508685 ], [ -0.104339, 51.508586 ], [ -0.104383, 51.509966 ], [ -0.105079, 51.50995 ], [ -0.106911, 51.509901 ], [ -0.110436, 51.509884 ], [ -0.110296, 51.510223 ], [ -0.110516, 51.510995 ], [ -0.110765, 51.511554 ], [ -0.110848, 51.512007 ], [ -0.111234, 51.512647 ], [ -0.111483, 51.513233 ], [ -0.111721, 51.513946 ], [ -0.111954, 51.514447 ], [ -0.112155, 51.514897 ], [ -0.111815, 51.514453 ], [ -0.11142, 51.514085 ], [ -0.111171, 51.513915 ], [ -0.110542, 51.51407 ], [ -0.110254, 51.514091 ], [ -0.109619, 51.514265 ], [ -0.109741, 51.514594 ], [ -0.109695, 51.514918 ], [ -0.10989, 51.514937 ], [ -0.109817, 51.515481 ], [ -0.109592, 51.516406 ], [ -0.110426, 51.516802 ], [ -0.111205, 51.517044 ], [ -0.111212, 51.517158 ], [ -0.110668, 51.517223 ], [ -0.110583, 51.517704 ], [ -0.111285, 51.517782 ], [ -0.111153, 51.51822 ], [ -0.110666, 51.518183 ], [ -0.110144, 51.518109 ], [ -0.109566, 51.518044 ], [ -0.10883, 51.517943 ], [ -0.1077, 51.517832 ], [ -0.107242, 51.517769 ], [ -0.106949, 51.518503 ], [ -0.106742, 51.518481 ], [ -0.10666, 51.518585 ], [ -0.106205, 51.518555 ], [ -0.10629, 51.518357 ], [ -0.105629, 51.518552 ], [ -0.105145, 51.518585 ], [ -0.105062, 51.519309 ], [ -0.104186, 51.519428 ], [ -0.104191, 51.519245 ], [ -0.103563, 51.519239 ], [ -0.10222, 51.519238 ], [ -0.100985, 51.519279 ], [ -0.099699, 51.519424 ], [ -0.099835, 51.519894 ], [ -0.100217, 51.520157 ], [ -0.099984, 51.520484 ], [ -0.099456, 51.52077 ], [ -0.098951, 51.520875 ], [ -0.098351, 51.520798 ], [ -0.097705, 51.52133 ], [ -0.097167, 51.521377 ], [ -0.096793, 51.521368 ], [ -0.096022, 51.521493 ], [ -0.095304, 51.521707 ], [ -0.09508, 51.521447 ], [ -0.094265, 51.521545 ], [ -0.094073, 51.521314 ], [ -0.093281, 51.521381 ], [ -0.093136, 51.521158 ], [ -0.092398, 51.521076 ], [ -0.092465, 51.520737 ], [ -0.092229, 51.520708 ], [ -0.09202, 51.520681 ], [ -0.091815, 51.520614 ], [ -0.09135, 51.520324 ], [ -0.090658, 51.520135 ], [ -0.090059, 51.520014 ], [ -0.08905, 51.519685 ], [ -0.088167, 51.51941 ], [ -0.08623, 51.518719 ], [ -0.08498, 51.518389 ], [ -0.084026, 51.518122 ], [ -0.08322, 51.518691 ], [ -0.082385, 51.519596 ], [ -0.081942, 51.520308 ], [ -0.081403, 51.520663 ], [ -0.080798, 51.521018 ], [ -0.080115, 51.52094 ] ] ] } }
]
}
